#dP2024 11 10  0  0  0.00000000      96 __u+U IGS20 EXT  IAC
## 2340      0.00000000   900.00000000 60624 0.0000000000000
+   52   G02G03G04G05G06G07G08G09G10G11G12G13G14G15G16G17G18
+        G19G20G21G22G23G24G25G26G27G28G29G30G31G32R01R02R03
+        R04R05R07R08R09R11R12R14R15R16R17R18R19R20R21R22R24
+        R26  0  0  0  0  0  0  0  0  0  0  0  0  0  0  0  0
+          0  0  0  0  0  0  0  0  0  0  0  0  0  0  0  0  0
++         6  8  7 10  7  7  7  8  6  7  9  7  8  7  8  6  7
++         6  7  7  8  7  7  7  8  6  7  8  7  6  8  9  7  8
++         9  7  9  8  8  7  9  8  7  8  7  7  8  8  6  7  8
++        17  0  0  0  0  0  0  0  0  0  0  0  0  0  0  0  0
++         0  0  0  0  0  0  0  0  0  0  0  0  0  0  0  0  0
%c M  cc GPS ccc cccc cccc cccc cccc ccccc ccccc ccccc ccccc
%c cc cc ccc ccc cccc cccc cccc cccc ccccc ccccc ccccc ccccc
%f  0.0000000  0.000000000  0.00000000000  0.000000000000000
%f  0.0000000  0.000000000  0.00000000000  0.000000000000000
%i    0    0    0    0      0      0      0      0         0
%i    0    0    0    0      0      0      0      0         0
/* IAC                                ULTRA-RAPID PREDICTION
/* S/V CLOCKS ARE ALIGNED TO GNSS TIME                      
/* G:C1WC2W R:C1PC2P E:C1XC5X C:C2IC6I J:C1CC2S             
/* PCV:IGS20_2317 OL/AL:FES2004  NONE     YN ORB:CoN CLK:CoN
*  2024 11 10 10  0  0.00000000
PG02  -7226.647045  18346.506455 -17149.312864   -317.810642
PG03   5862.833894  18461.737253 -18386.930891    595.831306
PG04   -311.214731  26303.955130   3035.031601    476.995401
PG05  10189.712239 -11106.101507  21696.135502   -192.550404
PG06  24066.545958  -3871.324496 -10614.149527   -103.581599
PG07  10555.650915  12083.087940  21744.868360    -21.059577
PG08  -6652.239855  23917.361404   8675.216907    409.590385
PG09   7418.286429  22638.229742  11578.903014    437.213754
PG10 -23690.851971  -9631.435727  -7575.259943   -190.378362
PG11  23168.799680 -12583.241612   2942.384086   -749.399377
PG12   -348.631709 -17787.889294 -20018.234573   -551.108466
PG13  13297.244799 -18005.615129  13878.795050    685.409578
PG14  23279.957431  12353.815582  -4144.585606    536.673862
PG15   3171.535852 -24965.667845   7725.784562    226.059371
PG16 -15496.550286   6000.925826  20470.429386   -132.134873
PG17  13461.983857   8541.338780 -20790.515098    564.128883
PG18 -11993.943907 -10346.769876  21385.743407   -660.135238
PG19  15467.420252  -2072.567121 -21584.708632    561.044782
PG20  19926.744219  -4555.089262  16957.811150    368.866437
PG21 -12511.103205  18565.681431 -13003.375218     97.802787
PG22  22360.493518   7365.621896 -11591.311191    -78.281174
PG23 -20012.141281 -16752.083979   5588.928811    360.207826
PG24   8177.411469 -19493.039736 -16294.599127   -481.043989
PG25 -14095.088509 -19241.118967 -12309.678238    499.101446
PG26 -23062.984936  -1207.012037  13277.017131     31.117437
PG27 -12553.097265  15694.606796  16843.075126    -34.737339
PG28 -23291.285214   2742.391680 -12487.992025   -474.404072
PG29  -4539.086569 -23629.981418  11067.518617   -564.874432
PG30  20118.309510   3997.631699  17164.109008   -284.890625
PG31 -24748.921275   9971.072360  -2322.072238   -222.012771
PG32 -14618.070348  -5300.036494 -21338.481215   -575.703698
PR01  -5741.251930  13567.246347 -20828.584723    103.939818
PR02   3258.457649  23907.132766  -8120.933096    -25.570582
PR03  11138.261005  20918.759749   9386.993256    111.103830
PR04  12309.672737   6879.478301  21274.037794    263.322346
PR05   7248.873183 -10972.059397  21869.464942    140.482780
PR07 -11204.651616 -20795.025027  -9668.574102     94.695503
PR08 -12432.706995  -6570.685366 -21237.434460     -6.283921
PR09   -678.561147 -11572.894994 -22698.471748    219.705577
PR11 -24964.873400  -5186.504949    239.134721      7.237407
PR12 -17578.020434   4921.441296  17844.819926     47.067568
PR14  17806.006317  10971.415713  14625.759325     27.195817
PR15  25032.199396   4496.438712  -1989.186041     74.260629
PR16  17704.702858  -4755.385550 -17747.172832     30.680382
PR17   5683.291158   9403.391462 -23007.502163    138.570954
PR18  16348.468000  -4599.967016 -19026.468934    171.172773
PR19  19566.313663 -14693.707913  -7179.439914   -297.945485
PR20  10409.008173 -18803.003034  13782.155346   -121.717277
PR21  -4820.992166 -10078.659848  22935.702801   -150.097352
PR22 -17191.747102   4958.642995  18209.099487     -5.673062
PR24  -8933.499897  19355.490424 -14000.974104    -79.550140
PR26 -12669.864614  -8209.568334 -20539.620564  -1735.997417
*  2024 11 10 10 15  0.00000000
PG02  -8953.675096  19261.971915 -15246.670580   -317.802995
PG03   3991.836985  17403.968568 -19864.138978    595.840778
PG04   -573.660169  26471.240706    168.058354    477.001249
PG05  12353.406262  -9880.966197  21168.060542   -192.551443
PG06  22929.298045  -3116.788088 -13068.780438   -103.607661
PG07   8460.189220  13230.073121  21957.790469    -21.057507
PG08  -6954.471458  22753.175723  11210.426522    409.599788
PG09   7186.098515  23834.701030   9066.885864    437.229000
PG10 -24230.177311 -10140.928707  -4804.110250   -190.391243
PG11  23427.984307 -12437.152136     79.113870   -749.401038
PG12   1567.559189 -16531.940154 -21021.718235   -551.110727
PG13  13186.825729 -16247.320007  15981.968332    685.411034
PG14  23397.222747  12761.283853  -1357.007752    536.681213
PG15   3631.089286 -23914.085077  10274.817804    226.063424
PG16 -17332.775968   4548.371312  19401.616603   -132.126136
PG17  13166.449582  10938.362353 -19837.316456    564.115995
PG18  -9823.735299 -11510.298674  21873.125673   -660.135775
PG19  15196.150193    372.638404 -21911.397370    561.048813
PG20  21561.321608  -3724.646875  15030.663163    368.866105
PG21 -13870.807901  19126.580889 -10565.957828     97.801969
PG22  23209.230700   8311.167991  -9070.206941    -78.283875
PG23 -19247.450215 -16507.191273   8325.790956    360.214995
PG24   9719.038100 -20250.899732 -14313.733451   -481.042202
PG25 -12718.081081 -18670.266947 -14527.107124    499.101225
PG26 -24206.898737  -2065.608366  11001.709651     31.105714
PG27 -12700.775771  13602.070251  18483.966381    -34.737309
PG28 -22051.211469   1785.147783 -14716.244831   -474.414849
PG29  -4211.202703 -24730.142423   8494.461535   -564.871881
PG30  18422.004791   5112.876622  18692.693184   -284.883687
PG31 -24509.227767   9576.871578  -5101.627385   -222.012228
PG32 -14531.819456  -7744.281085 -20664.632623   -575.699089
PR01  -6633.679739  11079.929321 -22001.852559    103.940943
PR02   3022.482175  22728.573488 -11057.806572    -25.570685
PR03  11600.570885  21782.135214   6355.838127    111.104283
PR04  13196.595108   9251.124718  19787.872416    263.323940
PR05   8072.383863  -8346.395635  22721.626778    140.483260
PR07 -11686.076168 -21698.676155  -6660.384496     94.696190
PR08 -13338.777723  -8947.881217 -19776.315749     -6.283759
PR09   2100.417850 -11145.107441 -22831.958026    219.707552
PR11 -24823.472911  -5013.728365  -2968.145809      7.236639
PR12 -19622.776288   4639.664208  15652.876701     47.068016
PR14  15905.302668  10551.504517  16941.436575     27.195905
PR15  25104.850164   4377.450330   1213.612619     74.260334
PR16  19744.746454  -4496.981952 -15526.826997     30.680689
PR17   3864.025988  11542.440550 -22407.741011    138.574038
PR18  14630.626962  -2839.803136 -20690.616714    171.174429
PR19  18679.345855 -14054.467046 -10188.708783   -297.946717
PR20  11333.161520 -20037.011104  11041.185020   -121.718213
PR21  -3001.485374 -12190.196922  22206.456508   -150.100274
PR22 -15524.848821   3298.774400  19998.645648     -5.683834
PR24  -9866.388850  20619.386303 -11320.285242    -79.551538
PR26 -13564.626492 -10477.678112 -18868.756215  -1735.996721
EOF
